<?xml version="1.0" encoding="UTF-8"?>
<ndm xmlns:xsi="http://www.w3.org/2001/XMLSchema-instance" xsi:noNamespaceSchemaLocation="https://sanaregistry.org/r/ndmxml_unqualified/ndmxml-2.0.0-master-2.0.xsd">
<omm id="CCSDS_OMM_VERS" version="2.0">
<header><CREATION_DATE/><ORIGINATOR/></header><body><segment><metadata><OBJECT_NAME>ONEWEB-0349</OBJECT_NAME><OBJECT_ID>2021-090C</OBJECT_ID><CENTER_NAME>EARTH</CENTER_NAME><REF_FRAME>TEME</REF_FRAME><TIME_SYSTEM>UTC</TIME_SYSTEM><MEAN_ELEMENT_THEORY>SGP4</MEAN_ELEMENT_THEORY></metadata><data><meanElements><EPOCH>2025-07-25T08:05:35.477088</EPOCH><MEAN_MOTION>13.20769869</MEAN_MOTION><ECCENTRICITY>.0001833</ECCENTRICITY><INCLINATION>87.9281</INCLINATION><RA_OF_ASC_NODE>339.5642</RA_OF_ASC_NODE><ARG_OF_PERICENTER>95.0056</ARG_OF_PERICENTER><MEAN_ANOMALY>265.1286</MEAN_ANOMALY></meanElements><tleParameters><EPHEMERIS_TYPE>0</EPHEMERIS_TYPE><CLASSIFICATION_TYPE>U</CLASSIFICATION_TYPE><NORAD_CAT_ID>49281</NORAD_CAT_ID><ELEMENT_SET_NO>999</ELEMENT_SET_NO><REV_AT_EPOCH>18668</REV_AT_EPOCH><BSTAR>.71797E-4</BSTAR><MEAN_MOTION_DOT>.42E-6</MEAN_MOTION_DOT><MEAN_MOTION_DDOT>0</MEAN_MOTION_DDOT></tleParameters></data></segment></body></omm>
<omm id="CCSDS_OMM_VERS" version="2.0">
<header><CREATION_DATE/><ORIGINATOR/></header><body><segment><metadata><OBJECT_NAME>ONEWEB-0353</OBJECT_NAME><OBJECT_ID>2021-090D</OBJECT_ID><CENTER_NAME>EARTH</CENTER_NAME><REF_FRAME>TEME</REF_FRAME><TIME_SYSTEM>UTC</TIME_SYSTEM><MEAN_ELEMENT_THEORY>SGP4</MEAN_ELEMENT_THEORY></metadata><data><meanElements><EPOCH>2025-07-26T02:55:50.382624</EPOCH><MEAN_MOTION>13.14503581</MEAN_MOTION><ECCENTRICITY>.0002075</ECCENTRICITY><INCLINATION>87.9062</INCLINATION><RA_OF_ASC_NODE>354.5862</RA_OF_ASC_NODE><ARG_OF_PERICENTER>94.7313</ARG_OF_PERICENTER><MEAN_ANOMALY>265.4053</MEAN_ANOMALY></meanElements><tleParameters><EPHEMERIS_TYPE>0</EPHEMERIS_TYPE><CLASSIFICATION_TYPE>U</CLASSIFICATION_TYPE><NORAD_CAT_ID>49282</NORAD_CAT_ID><ELEMENT_SET_NO>999</ELEMENT_SET_NO><REV_AT_EPOCH>18603</REV_AT_EPOCH><BSTAR>-.4965E-3</BSTAR><MEAN_MOTION_DOT>-.171E-5</MEAN_MOTION_DOT><MEAN_MOTION_DDOT>0</MEAN_MOTION_DDOT></tleParameters></data></segment></body></omm>
<omm id="CCSDS_OMM_VERS" version="2.0">
<header><CREATION_DATE/><ORIGINATOR/></header><body><segment><metadata><OBJECT_NAME>ONEWEB-0356</OBJECT_NAME><OBJECT_ID>2021-090E</OBJECT_ID><CENTER_NAME>EARTH</CENTER_NAME><REF_FRAME>TEME</REF_FRAME><TIME_SYSTEM>UTC</TIME_SYSTEM><MEAN_ELEMENT_THEORY>SGP4</MEAN_ELEMENT_THEORY></metadata><data><meanElements><EPOCH>2025-07-25T09:52:24.310272</EPOCH><MEAN_MOTION>13.20770469</MEAN_MOTION><ECCENTRICITY>.0002193</ECCENTRICITY><INCLINATION>87.9282</INCLINATION><RA_OF_ASC_NODE>339.5405</RA_OF_ASC_NODE><ARG_OF_PERICENTER>122.6697</ARG_OF_PERICENTER><MEAN_ANOMALY>237.4648</MEAN_ANOMALY></meanElements><tleParameters><EPHEMERIS_TYPE>0</EPHEMERIS_TYPE><CLASSIFICATION_TYPE>U</CLASSIFICATION_TYPE><NORAD_CAT_ID>49283</NORAD_CAT_ID><ELEMENT_SET_NO>999</ELEMENT_SET_NO><REV_AT_EPOCH>18669</REV_AT_EPOCH><BSTAR>-.15809E-3</BSTAR><MEAN_MOTION_DOT>-.51E-6</MEAN_MOTION_DOT><MEAN_MOTION_DDOT>0</MEAN_MOTION_DDOT></tleParameters></data></segment></body></omm>
<omm id="CCSDS_OMM_VERS" version="2.0">
<header><CREATION_DATE/><ORIGINATOR/></header><body><segment><metadata><OBJECT_NAME>ONEWEB-0358</OBJECT_NAME><OBJECT_ID>2021-090F</OBJECT_ID><CENTER_NAME>EARTH</CENTER_NAME><REF_FRAME>TEME</REF_FRAME><TIME_SYSTEM>UTC</TIME_SYSTEM><MEAN_ELEMENT_THEORY>SGP4</MEAN_ELEMENT_THEORY></metadata><data><meanElements><EPOCH>2025-07-26T02:57:24.026400</EPOCH><MEAN_MOTION>13.20770936</MEAN_MOTION><ECCENTRICITY>.0001753</ECCENTRICITY><INCLINATION>87.9286</INCLINATION><RA_OF_ASC_NODE>339.3889</RA_OF_ASC_NODE><ARG_OF_PERICENTER>101.5288</ARG_OF_PERICENTER><MEAN_ANOMALY>258.6043</MEAN_ANOMALY></meanElements><tleParameters><EPHEMERIS_TYPE>0</EPHEMERIS_TYPE><CLASSIFICATION_TYPE>U</CLASSIFICATION_TYPE><NORAD_CAT_ID>49284</NORAD_CAT_ID><ELEMENT_SET_NO>999</ELEMENT_SET_NO><REV_AT_EPOCH>18880</REV_AT_EPOCH><BSTAR>-.35377E-4</BSTAR><MEAN_MOTION_DOT>-.1E-7</MEAN_MOTION_DOT><MEAN_MOTION_DDOT>0</MEAN_MOTION_DDOT></tleParameters></data></segment></body></omm>
<omm id="CCSDS_OMM_VERS" version="2.0">
<header><CREATION_DATE/><ORIGINATOR/></header><body><segment><metadata><OBJECT_NAME>ONEWEB-0359</OBJECT_NAME><OBJECT_ID>2021-090G</OBJECT_ID><CENTER_NAME>EARTH</CENTER_NAME><REF_FRAME>TEME</REF_FRAME><TIME_SYSTEM>UTC</TIME_SYSTEM><MEAN_ELEMENT_THEORY>SGP4</MEAN_ELEMENT_THEORY></metadata><data><meanElements><EPOCH>2025-07-26T02:52:50.013984</EPOCH><MEAN_MOTION>13.20770645</MEAN_MOTION><ECCENTRICITY>.0001486</ECCENTRICITY><INCLINATION>87.9281</INCLINATION><RA_OF_ASC_NODE>339.4015</RA_OF_ASC_NODE><ARG_OF_PERICENTER>100.8292</ARG_OF_PERICENTER><MEAN_ANOMALY>259.3009</MEAN_ANOMALY></meanElements><tleParameters><EPHEMERIS_TYPE>0</EPHEMERIS_TYPE><CLASSIFICATION_TYPE>U</CLASSIFICATION_TYPE><NORAD_CAT_ID>49285</NORAD_CAT_ID><ELEMENT_SET_NO>999</ELEMENT_SET_NO><REV_AT_EPOCH>18877</REV_AT_EPOCH><BSTAR>.36123E-4</BSTAR><MEAN_MOTION_DOT>.28E-6</MEAN_MOTION_DOT><MEAN_MOTION_DDOT>0</MEAN_MOTION_DDOT></tleParameters></data></segment></body></omm>
<omm id="CCSDS_OMM_VERS" version="2.0">
<header><CREATION_DATE/><ORIGINATOR/></header><body><segment><metadata><OBJECT_NAME>ONEWEB-0360</OBJECT_NAME><OBJECT_ID>2021-090H</OBJECT_ID><CENTER_NAME>EARTH</CENTER_NAME><REF_FRAME>TEME</REF_FRAME><TIME_SYSTEM>UTC</TIME_SYSTEM><MEAN_ELEMENT_THEORY>SGP4</MEAN_ELEMENT_THEORY></metadata><data><meanElements><EPOCH>2025-07-25T17:33:42.061248</EPOCH><MEAN_MOTION>13.20815629</MEAN_MOTION><ECCENTRICITY>.0001557</ECCENTRICITY><INCLINATION>87.9287</INCLINATION><RA_OF_ASC_NODE>339.4859</RA_OF_ASC_NODE><ARG_OF_PERICENTER>90.0913</ARG_OF_PERICENTER><MEAN_ANOMALY>270.0399</MEAN_ANOMALY></meanElements><tleParameters><EPHEMERIS_TYPE>0</EPHEMERIS_TYPE><CLASSIFICATION_TYPE>U</CLASSIFICATION_TYPE><NORAD_CAT_ID>49286</NORAD_CAT_ID><ELEMENT_SET_NO>999</ELEMENT_SET_NO><REV_AT_EPOCH>18675</REV_AT_EPOCH><BSTAR>-.22498E-1</BSTAR><MEAN_MOTION_DOT>-.9131E-4</MEAN_MOTION_DOT><MEAN_MOTION_DDOT>0</MEAN_MOTION_DDOT></tleParameters></data></segment></body></omm>
<omm id="CCSDS_OMM_VERS" version="2.0">
<header><CREATION_DATE/><ORIGINATOR/></header><body><segment><metadata><OBJECT_NAME>ONEWEB-0361</OBJECT_NAME><OBJECT_ID>2021-090J</OBJECT_ID><CENTER_NAME>EARTH</CENTER_NAME><REF_FRAME>TEME</REF_FRAME><TIME_SYSTEM>UTC</TIME_SYSTEM><MEAN_ELEMENT_THEORY>SGP4</MEAN_ELEMENT_THEORY></metadata><data><meanElements><EPOCH>2025-07-25T09:50:08.144736</EPOCH><MEAN_MOTION>13.20770791</MEAN_MOTION><ECCENTRICITY>.0001923</ECCENTRICITY><INCLINATION>87.9284</INCLINATION><RA_OF_ASC_NODE>339.5448</RA_OF_ASC_NODE><ARG_OF_PERICENTER>102.9284</ARG_OF_PERICENTER><MEAN_ANOMALY>257.2065</MEAN_ANOMALY></meanElements><tleParameters><EPHEMERIS_TYPE>0</EPHEMERIS_TYPE><CLASSIFICATION_TYPE>U</CLASSIFICATION_TYPE><NORAD_CAT_ID>49287</NORAD_CAT_ID><ELEMENT_SET_NO>999</ELEMENT_SET_NO><REV_AT_EPOCH>18716</REV_AT_EPOCH><BSTAR>.78599E-4</BSTAR><MEAN_MOTION_DOT>.45E-6</MEAN_MOTION_DOT><MEAN_MOTION_DDOT>0</MEAN_MOTION_DDOT></tleParameters></data></segment></body></omm>
<omm id="CCSDS_OMM_VERS" version="2.0">
<header><CREATION_DATE/><ORIGINATOR/></header><body><segment><metadata><OBJECT_NAME>ONEWEB-0362</OBJECT_NAME><OBJECT_ID>2021-090K</OBJECT_ID><CENTER_NAME>EARTH</CENTER_NAME><REF_FRAME>TEME</REF_FRAME><TIME_SYSTEM>UTC</TIME_SYSTEM><MEAN_ELEMENT_THEORY>SGP4</MEAN_ELEMENT_THEORY></metadata><data><meanElements><EPOCH>2025-07-26T00:19:17.122368</EPOCH><MEAN_MOTION>13.19724571</MEAN_MOTION><ECCENTRICITY>.0001812</ECCENTRICITY><INCLINATION>87.9226</INCLINATION><RA_OF_ASC_NODE>9.8283</RA_OF_ASC_NODE><ARG_OF_PERICENTER>86.5525</ARG_OF_PERICENTER><MEAN_ANOMALY>273.5815</MEAN_ANOMALY></meanElements><tleParameters><EPHEMERIS_TYPE>0</EPHEMERIS_TYPE><CLASSIFICATION_TYPE>U</CLASSIFICATION_TYPE><NORAD_CAT_ID>49288</NORAD_CAT_ID><ELEMENT_SET_NO>999</ELEMENT_SET_NO><REV_AT_EPOCH>18471</REV_AT_EPOCH><BSTAR>-.41726E-4</BSTAR><MEAN_MOTION_DOT>-.4E-7</MEAN_MOTION_DOT><MEAN_MOTION_DDOT>0</MEAN_MOTION_DDOT></tleParameters></data></segment></body></omm>

</ndm>
