ONEWEB-0349             
1 49281U 21090C   25206.33721617  .00000042  00000+0  71797-4 0  9991
2 49281  87.9281 339.5642 0001833  95.0056 265.1286 13.20769869186683
ONEWEB-0353             
1 49282U 21090D   25207.12211091 -.00000171  00000+0 -49650-3 0  9997
2 49282  87.9062 354.5862 0002075  94.7313 265.4053 13.14503581186037
ONEWEB-0356             
1 49283U 21090E   25206.41139248 -.00000051  00000+0 -15809-3 0  9998
2 49283  87.9282 339.5405 0002193 122.6697 237.4648 13.20770469186694
ONEWEB-0358             
1 49284U 21090F   25207.12319475 -.00000001  00000+0 -35377-4 0  9998
2 49284  87.9286 339.3889 0001753 101.5288 258.6043 13.20770936188804
ONEWEB-0359             
1 49285U 21090G   25207.12002331  .00000028  00000+0  36123-4 0  9996
2 49285  87.9281 339.4015 0001486 100.8292 259.3009 13.20770645188775
ONEWEB-0360             
1 49286U 21090H   25206.73173682 -.00009131  00000+0 -22498-1 0  9994
2 49286  87.9287 339.4859 0001557  90.0913 270.0399 13.20815629186757
ONEWEB-0361             
1 49287U 21090J   25206.40981649  .00000045  00000+0  78599-4 0  9998
2 49287  87.9284 339.5448 0001923 102.9284 257.2065 13.20770791187164
ONEWEB-0362             
1 49288U 21090K   25207.01339262 -.00000004  00000+0 -41726-4 0  9994
2 49288  87.9226   9.8283 0001812  86.5525 273.5815 13.19724571184712
